{
  "type": "FeatureCollection",
  "features": [
    {
      "type": "Feature",
      "properties": {
        "norad_id": 66450,
        "name": "STARLINK-35334",
        "group": "last-30-days",
        "lat": -17.648152791592466,
        "lon": 67.90893408500325,
        "alt_km": 416.32508695312663,
        "timestamp": "2025-12-05T18:53:12.096036+00:00",
        "meta_object_name": "STARLINK-35334",
        "meta_object_id": "2025-259AE",
        "meta_epoch": "2025-12-05T00:00:02.999808",
        "meta_mean_motion": 15.50625426,
        "meta_eccentricity": 0.00016846,
        "meta_inclination": 43.0007,
        "meta_ra_of_asc_node": 92.475,
        "meta_arg_of_pericenter": 278.9169,
        "meta_mean_anomaly": 336.9604,
        "meta_ephemeris_type": 0,
        "meta_classification_type": "U",
        "meta_norad_cat_id": 66450,
        "meta_element_set_no": 999,
        "meta_rev_at_epoch": 503,
        "meta_bstar": -0.0016454132,
        "meta_mean_motion_dot": -0.00095858,
        "meta_mean_motion_ddot": 0,
        "tle_line1": "1 66450U 25259AE  25339.00003472 -.00095858  00000+0 -16454-2 0  9990",
        "tle_line2": "2 66450  43.0007  92.4750 0001684 278.9169 336.9604 15.50625426  5030"
      },
      "geometry": {
        "type": "Point",
        "coordinates": [
          67.90893408500325,
          -17.648152791592466
        ]
      }
    },
    {
      "type": "Feature",
      "properties": {
        "norad_id": 66454,
        "name": "VIASAT-3 F2",
        "group": "last-30-days",
        "lat": 1.5459055351459359,
        "lon": -50.968382423689185,
        "alt_km": 23516.889172531683,
        "timestamp": "2025-12-05T18:53:12.096050+00:00",
        "meta_object_name": "VIASAT-3 F2",
        "meta_object_id": "2025-261A",
        "meta_epoch": "2025-12-04T21:51:56.064384",
        "meta_mean_motion": 2.28030055,
        "meta_eccentricity": 0.23396731,
        "meta_inclination": 5.5696,
        "meta_ra_of_asc_node": 293.0418,
        "meta_arg_of_pericenter": 184.3884,
        "meta_mean_anomaly": 199.1368,
        "meta_ephemeris_type": 0,
        "meta_classification_type": "U",
        "meta_norad_cat_id": 66454,
        "meta_element_set_no": 999,
        "meta_rev_at_epoch": 47,
        "meta_bstar": 0,
        "meta_mean_motion_dot": -6.1e-07,
        "meta_mean_motion_ddot": 0,
        "tle_line1": "1 66454U 25261A   25338.91106556 -.00000061  00000+0  00000+0 0  9991",
        "tle_line2": "2 66454   5.5696 293.0418 2339673 184.3884 199.1368  2.28030055   477"
      },
      "geometry": {
        "type": "Point",
        "coordinates": [
          -50.968382423689185,
          1.5459055351459359
        ]
      }
    },
    {
      "type": "Feature",
      "properties": {
        "norad_id": 66455,
        "name": "ATLAS 5 CENTAUR R/B",
        "group": "last-30-days",
        "lat": 1.3111033259787528,
        "lon": -55.422685567650944,
        "alt_km": 23587.139773299637,
        "timestamp": "2025-12-05T18:53:12.096074+00:00",
        "meta_object_name": "ATLAS 5 CENTAUR R/B",
        "meta_object_id": "2025-261B",
        "meta_epoch": "2025-12-04T21:50:26.208384",
        "meta_mean_motion": 2.2825938,
        "meta_eccentricity": 0.23296066,
        "meta_inclination": 6.156,
        "meta_ra_of_asc_node": 292.399,
        "meta_arg_of_pericenter": 184.9104,
        "meta_mean_anomaly": 190.8055,
        "meta_ephemeris_type": 0,
        "meta_classification_type": "U",
        "meta_norad_cat_id": 66455,
        "meta_element_set_no": 999,
        "meta_rev_at_epoch": 47,
        "meta_bstar": 0,
        "meta_mean_motion_dot": -6.1e-07,
        "meta_mean_motion_ddot": 0,
        "tle_line1": "1 66455U 25261B   25338.91002556 -.00000061  00000+0  00000+0 0  9997",
        "tle_line2": "2 66455   6.1560 292.3990 2329606 184.9104 190.8055  2.28259380   473"
      },
      "geometry": {
        "type": "Point",
        "coordinates": [
          -55.422685567650944,
          1.3111033259787528
        ]
      }
    },
    {
      "type": "Feature",
      "properties": {
        "norad_id": 66456,
        "name": "STARLINK-35643",
        "group": "last-30-days",
        "lat": 7.587084280496854,
        "lon": 120.00687515463186,
        "alt_km": 415.08712770372495,
        "timestamp": "2025-12-05T18:53:12.096085+00:00",
        "meta_object_name": "STARLINK-35643",
        "meta_object_id": "2025-262A",
        "meta_epoch": "2025-12-05T06:00:02.000160",
        "meta_mean_motion": 15.51206593,
        "meta_eccentricity": 0.00011558,
        "meta_inclination": 43.0001,
        "meta_ra_of_asc_node": 114.9306,
        "meta_arg_of_pericenter": 270.0428,
        "meta_mean_anomaly": 340.2674,
        "meta_ephemeris_type": 0,
        "meta_classification_type": "U",
        "meta_norad_cat_id": 66456,
        "meta_element_set_no": 999,
        "meta_rev_at_epoch": 443,
        "meta_bstar": -0.016734312,
        "meta_mean_motion_dot": -0.00923174,
        "meta_mean_motion_ddot": 0,
        "tle_line1": "1 66456U 25262A   25339.25002315 -.00923174  00000+0 -16734-1 0  9993",
        "tle_line2": "2 66456  43.0001 114.9306 0001155 270.0428 340.2674 15.51206593  4430"
      },
      "geometry": {
        "type": "Point",
        "coordinates": [
          120.00687515463186,
          7.587084280496854
        ]
      }
    },
    {
      "type": "Feature",
      "properties": {
        "norad_id": 66457,
        "name": "STARLINK-35466",
        "group": "last-30-days",
        "lat": 10.16526386284281,
        "lon": 122.87297505050519,
        "alt_km": 414.7144249700168,
        "timestamp": "2025-12-05T18:53:12.096098+00:00",
        "meta_object_name": "STARLINK-35466",
        "meta_object_id": "2025-262B",
        "meta_epoch": "2025-12-05T06:00:02.000160",
        "meta_mean_motion": 15.51208081,
        "meta_eccentricity": 0.00012871,
        "meta_inclination": 43,
        "meta_ra_of_asc_node": 114.9209,
        "meta_arg_of_pericenter": 274.6886,
        "meta_mean_anomaly": 339.4579,
        "meta_ephemeris_type": 0,
        "meta_classification_type": "U",
        "meta_norad_cat_id": 66457,
        "meta_element_set_no": 999,
        "meta_rev_at_epoch": 443,
        "meta_bstar": -0.016830675,
        "meta_mean_motion_dot": -0.00928141,
        "meta_mean_motion_ddot": 0,
        "tle_line1": "1 66457U 25262B   25339.25002315 -.00928141  00000+0 -16831-1 0  9991",
        "tle_line2": "2 66457  43.0000 114.9209 0001287 274.6886 339.4579 15.51208081  4434"
      },
      "geometry": {
        "type": "Point",
        "coordinates": [
          122.87297505050519,
          10.16526386284281
        ]
      }
    },
    {
      "type": "Feature",
      "properties": {
        "norad_id": 66458,
        "name": "STARLINK-35684",
        "group": "last-30-days",
        "lat": 8.878791955315585,
        "lon": 121.4343534929269,
        "alt_km": 415.02456138733487,
        "timestamp": "2025-12-05T18:53:12.096108+00:00",
        "meta_object_name": "STARLINK-35684",
        "meta_object_id": "2025-262C",
        "meta_epoch": "2025-12-05T06:00:02.000160",
        "meta_mean_motion": 15.51211207,
        "meta_eccentricity": 0.00012891,
        "meta_inclination": 43.0001,
        "meta_ra_of_asc_node": 114.9254,
        "meta_arg_of_pericenter": 266.6576,
        "meta_mean_anomaly": 345.5692,
        "meta_ephemeris_type": 0,
        "meta_classification_type": "U",
        "meta_norad_cat_id": 66458,
        "meta_element_set_no": 999,
        "meta_rev_at_epoch": 443,
        "meta_bstar": -0.016889286,
        "meta_mean_motion_dot": -0.00931213,
        "meta_mean_motion_ddot": 0,
        "tle_line1": "1 66458U 25262C   25339.25002315 -.00931213  00000+0 -16889-1 0  9999",
        "tle_line2": "2 66458  43.0001 114.9254 0001289 266.6576 345.5692 15.51211207  4433"
      },
      "geometry": {
        "type": "Point",
        "coordinates": [
          121.4343534929269,
          8.878791955315585
        ]
      }
    },
    {
      "type": "Feature",
      "properties": {
        "norad_id": 66459,
        "name": "STARLINK-35449",
        "group": "last-30-days",
        "lat": 11.444522144417476,
        "lon": 124.32172965613753,
        "alt_km": 414.53753272957056,
        "timestamp": "2025-12-05T18:53:12.096118+00:00",
        "meta_object_name": "STARLINK-35449",
        "meta_object_id": "2025-262D",
        "meta_epoch": "2025-12-05T06:00:02.000160",
        "meta_mean_motion": 15.51210398,
        "meta_eccentricity": 0.00012475,
        "meta_inclination": 43,
        "meta_ra_of_asc_node": 114.9159,
        "meta_arg_of_pericenter": 275.8655,
        "meta_mean_anomaly": 340.198,
        "meta_ephemeris_type": 0,
        "meta_classification_type": "U",
        "meta_norad_cat_id": 66459,
        "meta_element_set_no": 999,
        "meta_rev_at_epoch": 443,
        "meta_bstar": -0.016908938,
        "meta_mean_motion_dot": -0.00932176,
        "meta_mean_motion_ddot": 0,
        "tle_line1": "1 66459U 25262D   25339.25002315 -.00932176  00000+0 -16909-1 0  9992",
        "tle_line2": "2 66459  43.0000 114.9159 0001247 275.8655 340.1980 15.51210398  4432"
      },
      "geometry": {
        "type": "Point",
        "coordinates": [
          124.32172965613753,
          11.444522144417476
        ]
      }
    }
  ]
}